{
  "type": "FeatureCollection",
  "features": [
    {
      "type": "Feature",
      "properties": {
        "norad_id": 32461,
        "name": "FENGYUN 1C DEB",
        "group": "fengyun-1c-debris",
        "lat": -79.84325066731593,
        "lon": -91.80610357613921,
        "alt_km": 1162.8141388462245,
        "timestamp": "2025-12-25T19:00:39.637680+00:00",
        "meta_object_name": "FENGYUN 1C DEB",
        "meta_object_id": "1999-025DBZ",
        "meta_epoch": "2025-12-24T02:10:28.329888",
        "meta_mean_motion": 13.72863387,
        "meta_eccentricity": 0.02328242,
        "meta_inclination": 98.3337,
        "meta_ra_of_asc_node": 211.8091,
        "meta_arg_of_pericenter": 86.3573,
        "meta_mean_anomaly": 65.2685,
        "meta_ephemeris_type": 0,
        "meta_classification_type": "U",
        "meta_norad_cat_id": 32461,
        "meta_element_set_no": 999,
        "meta_rev_at_epoch": 67450,
        "meta_bstar": 0.0012271191,
        "meta_mean_motion_dot": 1.339e-05,
        "meta_mean_motion_ddot": 0,
        "tle_line1": "1 32461U 99025DBZ 25358.09060567  .00001339  00000+0  12271-2 0  9997",
        "tle_line2": "2 32461  98.3337 211.8091 0232824  86.3573  65.2685 13.72863387674508"
      },
      "geometry": {
        "type": "Point",
        "coordinates": [
          -91.80610357613921,
          -79.84325066731593
        ]
      }
    },
    {
      "type": "Feature",
      "properties": {
        "norad_id": 32464,
        "name": "FENGYUN 1C DEB",
        "group": "fengyun-1c-debris",
        "lat": -60.06151740081187,
        "lon": -169.69040847636148,
        "alt_km": 542.6817962153691,
        "timestamp": "2025-12-25T19:00:39.637691+00:00",
        "meta_object_name": "FENGYUN 1C DEB",
        "meta_object_id": "1999-025DCC",
        "meta_epoch": "2025-12-24T19:25:24.966336",
        "meta_mean_motion": 14.9326332,
        "meta_eccentricity": 0.01127222,
        "meta_inclination": 97.3538,
        "meta_ra_of_asc_node": 22.3485,
        "meta_arg_of_pericenter": 195.2816,
        "meta_mean_anomaly": 164.4991,
        "meta_ephemeris_type": 0,
        "meta_classification_type": "U",
        "meta_norad_cat_id": 32464,
        "meta_element_set_no": 999,
        "meta_rev_at_epoch": 60972,
        "meta_bstar": 0.0013446377,
        "meta_mean_motion_dot": 0.00015905,
        "meta_mean_motion_ddot": 0,
        "tle_line1": "1 32464U 99025DCC 25358.80931674  .00015905  00000+0  13446-2 0  9994",
        "tle_line2": "2 32464  97.3538  22.3485 0112722 195.2816 164.4991 14.93263320609728"
      },
      "geometry": {
        "type": "Point",
        "coordinates": [
          -169.69040847636148,
          -60.06151740081187
        ]
      }
    },
    {
      "type": "Feature",
      "properties": {
        "norad_id": 33502,
        "name": "FENGYUN 1C DEB",
        "group": "fengyun-1c-debris",
        "lat": 15.822720370528138,
        "lon": -59.73245289113833,
        "alt_km": 827.7235263002431,
        "timestamp": "2025-12-25T19:00:39.637701+00:00",
        "meta_object_name": "FENGYUN 1C DEB",
        "meta_object_id": "1999-025DCF",
        "meta_epoch": "2025-12-24T19:32:47.025888",
        "meta_mean_motion": 14.21984881,
        "meta_eccentricity": 0.00802865,
        "meta_inclination": 99.0267,
        "meta_ra_of_asc_node": 301.8494,
        "meta_arg_of_pericenter": 117.8191,
        "meta_mean_anomaly": 297.0578,
        "meta_ephemeris_type": 0,
        "meta_classification_type": "U",
        "meta_norad_cat_id": 33502,
        "meta_element_set_no": 999,
        "meta_rev_at_epoch": 87127,
        "meta_bstar": 0.002449269,
        "meta_mean_motion_dot": 5.549e-05,
        "meta_mean_motion_ddot": 0,
        "tle_line1": "1 33502U 99025DCF 25358.81443317  .00005549  00000+0  24493-2 0  9998",
        "tle_line2": "2 33502  99.0267 301.8494 0080286 117.8191 297.0578 14.21984881871278"
      },
      "geometry": {
        "type": "Point",
        "coordinates": [
          -59.73245289113833,
          15.822720370528138
        ]
      }
    },
    {
      "type": "Feature",
      "properties": {
        "norad_id": 33599,
        "name": "FENGYUN 1C DEB",
        "group": "fengyun-1c-debris",
        "lat": 31.443916666389903,
        "lon": 61.81012247517871,
        "alt_km": 577.8493264114959,
        "timestamp": "2025-12-25T19:00:39.637712+00:00",
        "meta_object_name": "FENGYUN 1C DEB",
        "meta_object_id": "1999-025DCG",
        "meta_epoch": "2025-12-06T10:36:41.156064",
        "meta_mean_motion": 15.14898296,
        "meta_eccentricity": 0.0126212,
        "meta_inclination": 96.6136,
        "meta_ra_of_asc_node": 49.0151,
        "meta_arg_of_pericenter": 322.3863,
        "meta_mean_anomaly": 36.8593,
        "meta_ephemeris_type": 0,
        "meta_classification_type": "U",
        "meta_norad_cat_id": 33599,
        "meta_element_set_no": 999,
        "meta_rev_at_epoch": 65908,
        "meta_bstar": 0.0016783,
        "meta_mean_motion_dot": 0.00038297,
        "meta_mean_motion_ddot": 0,
        "tle_line1": "1 33599U 99025DCG 25340.44214301  .00038297  00000+0  16783-2 0  9992",
        "tle_line2": "2 33599  96.6136  49.0151 0126212 322.3863  36.8593 15.14898296659088"
      },
      "geometry": {
        "type": "Point",
        "coordinates": [
          61.81012247517871,
          31.443916666389903
        ]
      }
    },
    {
      "type": "Feature",
      "properties": {
        "norad_id": 33601,
        "name": "FENGYUN 1C DEB",
        "group": "fengyun-1c-debris",
        "lat": 61.741590222837296,
        "lon": -9.24687443186197,
        "alt_km": 748.0959112485143,
        "timestamp": "2025-12-25T19:00:39.637722+00:00",
        "meta_object_name": "FENGYUN 1C DEB",
        "meta_object_id": "1999-025DCJ",
        "meta_epoch": "2025-12-20T15:39:56.393856",
        "meta_mean_motion": 14.07944866,
        "meta_eccentricity": 0.01580649,
        "meta_inclination": 98.315,
        "meta_ra_of_asc_node": 150.2281,
        "meta_arg_of_pericenter": 120.0605,
        "meta_mean_anomaly": 241.635,
        "meta_ephemeris_type": 0,
        "meta_classification_type": "U",
        "meta_norad_cat_id": 33601,
        "meta_element_set_no": 999,
        "meta_rev_at_epoch": 90791,
        "meta_bstar": 0.00090389352,
        "meta_mean_motion_dot": 1.684e-05,
        "meta_mean_motion_ddot": 0,
        "tle_line1": "1 33601U 99025DCJ 25354.65273604  .00001684  00000+0  90389-3 0  9990",
        "tle_line2": "2 33601  98.3150 150.2281 0158064 120.0605 241.6350 14.07944866907914"
      },
      "geometry": {
        "type": "Point",
        "coordinates": [
          -9.24687443186197,
          61.741590222837296
        ]
      }
    },
    {
      "type": "Feature",
      "properties": {
        "norad_id": 33603,
        "name": "FENGYUN 1C DEB",
        "group": "fengyun-1c-debris",
        "lat": -71.19595630641187,
        "lon": -36.17693317796047,
        "alt_km": 672.4765653792683,
        "timestamp": "2025-12-25T19:00:39.637732+00:00",
        "meta_object_name": "FENGYUN 1C DEB",
        "meta_object_id": "1999-025DCL",
        "meta_epoch": "2025-12-24T14:07:49.848096",
        "meta_mean_motion": 14.79984872,
        "meta_eccentricity": 0.02199615,
        "meta_inclination": 98.8064,
        "meta_ra_of_asc_node": 295.4202,
        "meta_arg_of_pericenter": 35.1993,
        "meta_mean_anomaly": 326.3521,
        "meta_ephemeris_type": 0,
        "meta_classification_type": "U",
        "meta_norad_cat_id": 33603,
        "meta_element_set_no": 999,
        "meta_rev_at_epoch": 99035,
        "meta_bstar": 0.00030515268,
        "meta_mean_motion_dot": 3.413e-05,
        "meta_mean_motion_ddot": 0,
        "tle_line1": "1 33603U 99025DCL 25358.58877139  .00003413  00000+0  30515-3 0  9998",
        "tle_line2": "2 33603  98.8064 295.4202 0219961  35.1993 326.3521 14.79984872990351"
      },
      "geometry": {
        "type": "Point",
        "coordinates": [
          -36.17693317796047,
          -71.19595630641187
        ]
      }
    },
    {
      "type": "Feature",
      "properties": {
        "norad_id": 33605,
        "name": "FENGYUN 1C DEB",
        "group": "fengyun-1c-debris",
        "lat": 44.18110775064943,
        "lon": -10.224309423129128,
        "alt_km": 821.9519768042655,
        "timestamp": "2025-12-25T19:00:39.637742+00:00",
        "meta_object_name": "FENGYUN 1C DEB",
        "meta_object_id": "1999-025DCN",
        "meta_epoch": "2025-12-10T07:01:31.719072",
        "meta_mean_motion": 14.0776111,
        "meta_eccentricity": 0.0057186,
        "meta_inclination": 98.6977,
        "meta_ra_of_asc_node": 343.4026,
        "meta_arg_of_pericenter": 81.9564,
        "meta_mean_anomaly": 295.3635,
        "meta_ephemeris_type": 0,
        "meta_classification_type": "U",
        "meta_norad_cat_id": 33605,
        "meta_element_set_no": 999,
        "meta_rev_at_epoch": 59784,
        "meta_bstar": 0.00085517,
        "meta_mean_motion_dot": 1.428e-05,
        "meta_mean_motion_ddot": 0,
        "tle_line1": "1 33605U 99025DCN 25344.29272823  .00001428  00000+0  85517-3 0  9998",
        "tle_line2": "2 33605  98.6977 343.4026 0057186  81.9564 295.3635 14.07761110597841"
      },
      "geometry": {
        "type": "Point",
        "coordinates": [
          -10.224309423129128,
          44.18110775064943
        ]
      }
    }
  ]
}